IDEFIX & ARIANE 42P R/B 
1 27422U 02021B   25348.82079783  .00000376  00000+0  15941-3 0  9996
2 27422  98.5788 283.4847 0012956  78.0750 282.1885 14.30952157231883
AQUA                    
1 27424U 02022A   25348.94512740  .00001173  00000+0  24484-3 0  9995
2 27424  98.4040 309.8600 0001168 114.5725 290.1501 14.61814090256356
CZ-4B R/B               
1 27432U 02024C   25348.93120994  .00000063  00000+0  55437-4 0  9991
2 27432  98.8998  37.6953 0049156 263.5486 270.2326 14.14528196217253
MIDORI II (ADEOS-II)    
1 27597U 02056A   25348.88567773  .00000294  00000+0  13365-3 0  9991
2 27597  98.7638 301.8532 0000292 155.6014 204.5181 14.29207176198187
H-2A R/B                
1 27601U 02056E   25348.91485090  .00000396  00000+0  15303-3 0  9999
2 27601  98.3068 307.5849 0071330  54.7602  10.8846 14.33677931201965
CZ-4B R/B               
1 28059U 03049C   25348.93390941  .00000406  00000+0  10466-3 0  9999
2 28059  98.6790 335.5807 0049095 129.4878 231.0675 14.54911227174273
CZ-2C R/B               
1 28222U 04012C   25348.92654265  .00028155  00000+0  40766-3 0  9990
2 28222  97.7425  41.7286 0016438 261.8135  98.1254 15.55702397191068
SL-16 R/B               
1 28353U 04021B   25348.88435003 -.00000235  00000+0 -97720-4 0  9991
2 28353  71.0014  50.4650 0005166 196.9290 163.1661 14.14579811110849
CZ-4B R/B               
1 28415U 04035C   25348.65780792  .00007136  00000+0  26493-3 0  9991
2 28415  97.3612  18.9764 0031534 270.3323  89.4303 15.27408687166920
CZ-2C R/B               
1 28480U 04046B   25348.78206862  .00000254  00000+0  10910-3 0  9991
2 28480  98.1989 264.0329 0140414  46.3098 314.9618 14.26942051 96391
ARIANE 5 R/B            
1 28499U 04049H   25348.87611141  .00001185  00000+0  13779-3 0  9994
2 28499  98.2523 149.2340 0083304 265.9282  93.2407 14.85016684133205
CZ-2D R/B               
1 28738U 05024B   25348.78348448  .00024589  00000+0  39049-3 0  9992
2 28738  97.3639 356.2842 0005142 358.7786   1.3453 15.53325944126571
