CCSDS_OMM_VERS = 2.0
CREATION_DATE  = 
ORIGINATOR     = 

OBJECT_NAME    = IDEFIX & ARIANE 42P R/B
OBJECT_ID      = 2002-021B
CENTER_NAME    = EARTH
REF_FRAME      = TEME
TIME_SYSTEM    = UTC
MEAN_ELEMENT_THEORY = SGP/SGP4

EPOCH          = 2025-12-14T19:41:56.932512
MEAN_MOTION    = 14.30952157
ECCENTRICITY   = .0012956
INCLINATION    = 98.5788
RA_OF_ASC_NODE = 283.4847
ARG_OF_PERICENTER = 78.0750
MEAN_ANOMALY   = 282.1885

EPHEMERIS_TYPE = 0
CLASSIFICATION_TYPE = U
NORAD_CAT_ID   = 27422
ELEMENT_SET_NO = 999
REV_AT_EPOCH   = 23188
BSTAR          = .15941059E-3
MEAN_MOTION_DOT = .376E-5
MEAN_MOTION_DDOT = 0

CCSDS_OMM_VERS = 2.0
CREATION_DATE  = 
ORIGINATOR     = 

OBJECT_NAME    = AQUA
OBJECT_ID      = 2002-022A
CENTER_NAME    = EARTH
REF_FRAME      = TEME
TIME_SYSTEM    = UTC
MEAN_ELEMENT_THEORY = SGP/SGP4

EPOCH          = 2025-12-14T22:40:59.007360
MEAN_MOTION    = 14.61814090
ECCENTRICITY   = .00011688
INCLINATION    = 98.4040
RA_OF_ASC_NODE = 309.8600
ARG_OF_PERICENTER = 114.5725
MEAN_ANOMALY   = 290.1501

EPHEMERIS_TYPE = 0
CLASSIFICATION_TYPE = U
NORAD_CAT_ID   = 27424
ELEMENT_SET_NO = 999
REV_AT_EPOCH   = 25635
BSTAR          = .24483854E-3
MEAN_MOTION_DOT = .1173E-4
MEAN_MOTION_DDOT = 0

CCSDS_OMM_VERS = 2.0
CREATION_DATE  = 
ORIGINATOR     = 

OBJECT_NAME    = CZ-4B R/B
OBJECT_ID      = 2002-024C
CENTER_NAME    = EARTH
REF_FRAME      = TEME
TIME_SYSTEM    = UTC
MEAN_ELEMENT_THEORY = SGP/SGP4

EPOCH          = 2025-12-14T22:20:56.538816
MEAN_MOTION    = 14.14528196
ECCENTRICITY   = .00491564
INCLINATION    = 98.8998
RA_OF_ASC_NODE = 37.6953
ARG_OF_PERICENTER = 263.5486
MEAN_ANOMALY   = 270.2326

EPHEMERIS_TYPE = 0
CLASSIFICATION_TYPE = U
NORAD_CAT_ID   = 27432
ELEMENT_SET_NO = 999
REV_AT_EPOCH   = 21725
BSTAR          = .55437099E-4
MEAN_MOTION_DOT = .63E-6
MEAN_MOTION_DDOT = 0

CCSDS_OMM_VERS = 2.0
CREATION_DATE  = 
ORIGINATOR     = 

OBJECT_NAME    = MIDORI II (ADEOS-II)
OBJECT_ID      = 2002-056A
CENTER_NAME    = EARTH
REF_FRAME      = TEME
TIME_SYSTEM    = UTC
MEAN_ELEMENT_THEORY = SGP/SGP4

EPOCH          = 2025-12-14T21:15:22.555872
MEAN_MOTION    = 14.29207176
ECCENTRICITY   = .00002925
INCLINATION    = 98.7638
RA_OF_ASC_NODE = 301.8532
ARG_OF_PERICENTER = 155.6014
MEAN_ANOMALY   = 204.5181

EPHEMERIS_TYPE = 0
CLASSIFICATION_TYPE = U
NORAD_CAT_ID   = 27597
ELEMENT_SET_NO = 999
REV_AT_EPOCH   = 19818
BSTAR          = .13365454E-3
MEAN_MOTION_DOT = .294E-5
MEAN_MOTION_DDOT = 0

CCSDS_OMM_VERS = 2.0
CREATION_DATE  = 
ORIGINATOR     = 

OBJECT_NAME    = H-2A R/B
OBJECT_ID      = 2002-056E
CENTER_NAME    = EARTH
REF_FRAME      = TEME
TIME_SYSTEM    = UTC
MEAN_ELEMENT_THEORY = SGP/SGP4

EPOCH          = 2025-12-14T21:57:23.117760
MEAN_MOTION    = 14.33677931
ECCENTRICITY   = .00713307
INCLINATION    = 98.3068
RA_OF_ASC_NODE = 307.5849
ARG_OF_PERICENTER = 54.7602
MEAN_ANOMALY   = 10.8846

EPHEMERIS_TYPE = 0
CLASSIFICATION_TYPE = U
NORAD_CAT_ID   = 27601
ELEMENT_SET_NO = 999
REV_AT_EPOCH   = 20196
BSTAR          = .15303225E-3
MEAN_MOTION_DOT = .396E-5
MEAN_MOTION_DDOT = 0

CCSDS_OMM_VERS = 2.0
CREATION_DATE  = 
ORIGINATOR     = 

OBJECT_NAME    = CZ-4B R/B
OBJECT_ID      = 2003-049C
CENTER_NAME    = EARTH
REF_FRAME      = TEME
TIME_SYSTEM    = UTC
MEAN_ELEMENT_THEORY = SGP/SGP4

EPOCH          = 2025-12-14T22:24:49.773024
MEAN_MOTION    = 14.54911227
ECCENTRICITY   = .00490959
INCLINATION    = 98.6790
RA_OF_ASC_NODE = 335.5807
ARG_OF_PERICENTER = 129.4878
MEAN_ANOMALY   = 231.0675

EPHEMERIS_TYPE = 0
CLASSIFICATION_TYPE = U
NORAD_CAT_ID   = 28059
ELEMENT_SET_NO = 999
REV_AT_EPOCH   = 17427
BSTAR          = .10465918E-3
MEAN_MOTION_DOT = .406E-5
MEAN_MOTION_DDOT = 0

CCSDS_OMM_VERS = 2.0
CREATION_DATE  = 
ORIGINATOR     = 

OBJECT_NAME    = CZ-2C R/B
OBJECT_ID      = 2004-012C
CENTER_NAME    = EARTH
REF_FRAME      = TEME
TIME_SYSTEM    = UTC
MEAN_ELEMENT_THEORY = SGP/SGP4

EPOCH          = 2025-12-14T22:14:13.284960
MEAN_MOTION    = 15.55702397
ECCENTRICITY   = .00164384
INCLINATION    = 97.7425
RA_OF_ASC_NODE = 41.7286
ARG_OF_PERICENTER = 261.8135
MEAN_ANOMALY   = 98.1254

EPHEMERIS_TYPE = 0
CLASSIFICATION_TYPE = U
NORAD_CAT_ID   = 28222
ELEMENT_SET_NO = 999
REV_AT_EPOCH   = 19106
BSTAR          = .40766204E-3
MEAN_MOTION_DOT = .28155E-3
MEAN_MOTION_DDOT = 0

CCSDS_OMM_VERS = 2.0
CREATION_DATE  = 
ORIGINATOR     = 

OBJECT_NAME    = SL-16 R/B
OBJECT_ID      = 2004-021B
CENTER_NAME    = EARTH
REF_FRAME      = TEME
TIME_SYSTEM    = UTC
MEAN_ELEMENT_THEORY = SGP/SGP4

EPOCH          = 2025-12-14T21:13:27.842592
MEAN_MOTION    = 14.14579811
ECCENTRICITY   = .00051666
INCLINATION    = 71.0014
RA_OF_ASC_NODE = 50.4650
ARG_OF_PERICENTER = 196.9290
MEAN_ANOMALY   = 163.1661

EPHEMERIS_TYPE = 0
CLASSIFICATION_TYPE = U
NORAD_CAT_ID   = 28353
ELEMENT_SET_NO = 999
REV_AT_EPOCH   = 11084
BSTAR          = -.9772032E-4
MEAN_MOTION_DOT = -.235E-5
MEAN_MOTION_DDOT = 0

CCSDS_OMM_VERS = 2.0
CREATION_DATE  = 
ORIGINATOR     = 

OBJECT_NAME    = CZ-4B R/B
OBJECT_ID      = 2004-035C
CENTER_NAME    = EARTH
REF_FRAME      = TEME
TIME_SYSTEM    = UTC
MEAN_ELEMENT_THEORY = SGP/SGP4

EPOCH          = 2025-12-14T15:47:14.604288
MEAN_MOTION    = 15.27408687
ECCENTRICITY   = .00315349
INCLINATION    = 97.3612
RA_OF_ASC_NODE = 18.9764
ARG_OF_PERICENTER = 270.3323
MEAN_ANOMALY   = 89.4303

EPHEMERIS_TYPE = 0
CLASSIFICATION_TYPE = U
NORAD_CAT_ID   = 28415
ELEMENT_SET_NO = 999
REV_AT_EPOCH   = 16692
BSTAR          = .26492862E-3
MEAN_MOTION_DOT = .7136E-4
MEAN_MOTION_DDOT = 0

CCSDS_OMM_VERS = 2.0
CREATION_DATE  = 
ORIGINATOR     = 

OBJECT_NAME    = CZ-2C R/B
OBJECT_ID      = 2004-046B
CENTER_NAME    = EARTH
REF_FRAME      = TEME
TIME_SYSTEM    = UTC
MEAN_ELEMENT_THEORY = SGP/SGP4

EPOCH          = 2025-12-14T18:46:10.728768
MEAN_MOTION    = 14.26942051
ECCENTRICITY   = .01404144
INCLINATION    = 98.1989
RA_OF_ASC_NODE = 264.0329
ARG_OF_PERICENTER = 46.3098
MEAN_ANOMALY   = 314.9618

EPHEMERIS_TYPE = 0
CLASSIFICATION_TYPE = U
NORAD_CAT_ID   = 28480
ELEMENT_SET_NO = 999
REV_AT_EPOCH   = 9639
BSTAR          = .10909737E-3
MEAN_MOTION_DOT = .254E-5
MEAN_MOTION_DDOT = 0

CCSDS_OMM_VERS = 2.0
CREATION_DATE  = 
ORIGINATOR     = 

OBJECT_NAME    = ARIANE 5 R/B
OBJECT_ID      = 2004-049H
CENTER_NAME    = EARTH
REF_FRAME      = TEME
TIME_SYSTEM    = UTC
MEAN_ELEMENT_THEORY = SGP/SGP4

EPOCH          = 2025-12-14T21:01:36.025824
MEAN_MOTION    = 14.85016684
ECCENTRICITY   = .00833042
INCLINATION    = 98.2523
RA_OF_ASC_NODE = 149.2340
ARG_OF_PERICENTER = 265.9282
MEAN_ANOMALY   = 93.2407

EPHEMERIS_TYPE = 0
CLASSIFICATION_TYPE = U
NORAD_CAT_ID   = 28499
ELEMENT_SET_NO = 999
REV_AT_EPOCH   = 13320
BSTAR          = .1377923E-3
MEAN_MOTION_DOT = .1185E-4
MEAN_MOTION_DDOT = 0

CCSDS_OMM_VERS = 2.0
CREATION_DATE  = 
ORIGINATOR     = 

OBJECT_NAME    = CZ-2D R/B
OBJECT_ID      = 2005-024B
CENTER_NAME    = EARTH
REF_FRAME      = TEME
TIME_SYSTEM    = UTC
MEAN_ELEMENT_THEORY = SGP/SGP4

EPOCH          = 2025-12-14T18:48:13.059072
MEAN_MOTION    = 15.53325944
ECCENTRICITY   = .00051429
INCLINATION    = 97.3639
RA_OF_ASC_NODE = 356.2842
ARG_OF_PERICENTER = 358.7786
MEAN_ANOMALY   = 1.3453

EPHEMERIS_TYPE = 0
CLASSIFICATION_TYPE = U
NORAD_CAT_ID   = 28738
ELEMENT_SET_NO = 999
REV_AT_EPOCH   = 12657
BSTAR          = .390491E-3
MEAN_MOTION_DOT = .24589E-3
MEAN_MOTION_DDOT = 0

